STARLINK-5900           
1 55948U 23037AL  25320.55394434 -.00075841  00000+0 -65116-2 0  9992
2 55948  69.9979 189.8273 0001788 173.0437 187.0747 14.97769022147529
STARLINK-5899           
1 55949U 23037AM  25320.02765607  .00001233  00000+0  11113-3 0  9990
2 55949  69.9982 191.2025 0002190 262.2016  97.8895 14.98324385147441
STARLINK-5911           
1 55950U 23037AN  25320.61597011  .00002901  00000+0  25088-3 0  9998
2 55950  70.0002 189.6426 0002644 276.6265  83.4593 14.98323941147537
STARLINK-5908           
1 55951U 23037AP  25320.12384154  .00003191  00000+0  27517-3 0  9998
2 55951  69.9987 210.6107 0002869 269.5523  90.5307 14.98320463146970
STARLINK-5893           
1 55952U 23037AQ  25318.88494085 -.00063765  00000+0 -54504-2 0  9994
2 55952  69.9995 194.0356 0001477 342.6234  17.4874 14.97867144147279
STARLINK-5892           
1 55954U 23037AS  25320.39065762  .00003362  00000+0  28947-3 0  9999
2 55954  69.9987 190.0596 0003281 266.5357  93.5427 14.98329132147505
STARLINK-5878           
1 55955U 23037AT  25320.60759834  .00027365  00000+0  22867-2 0  9997
2 55955  69.9999 189.6127 0003235 280.8209  79.2586 14.98424035147535
STARLINK-5883           
1 55956U 23037AU  25320.64933939 -.00002652  00000+0 -21447-3 0  9990
2 55956  69.9993 189.3571 0002700 275.4615  84.6236 14.98350714147542
STARLINK-5884           
1 55957U 23037AV  25320.07772961  .00004964  00000+0  42364-3 0  9991
2 55957  69.9981 190.9750 0002777 289.9592  70.1268 14.98322125147455
STARLINK-5928           
1 55958U 23037AW  25320.60345284  .00001236  00000+0  11136-3 0  9997
2 55958  69.9982 189.5986 0003301 267.4081  92.6701 14.98345906147532
STARLINK-5929           
1 55959U 23037AX  25320.59928684  .00005017  00000+0  42794-3 0  9992
2 55959  69.9981 189.5839 0003312 266.0254  94.0527 14.98333355147535
STARLINK-5938           
1 55960U 23037AY  25320.07782952  .00012882  00000+0  10839-2 0  9995
2 55960  70.0008 190.9568 0003779 242.1645 117.9132 14.98380901147458
STARLINK-5933           
1 55961U 23037AZ  25320.65352417 -.00003037  00000+0 -24685-3 0  9998
2 55961  69.9986 189.3715 0003153 273.5210  86.5588 14.98331637147547
STARLINK-5906           
1 55962U 23037BA  25320.35728441  .00002648  00000+0  22966-3 0  9995
2 55962  69.9981 190.3393 0003012 273.6344  86.4470 14.98327120147495
STARLINK-5924           
1 55963U 23037BB  25320.06103162  .00004528  00000+0  38706-3 0  9999
2 55963  69.9990 190.9165 0002994 271.7210  88.3606 14.98327052147450
STARLINK-5895           
1 55964U 23037BC  25320.60495450  .00006919  00000+0  52409-3 0  9996
2 55964  70.0012 188.7453 0001739 250.2780 109.8194 15.02694182147553
