[{"OBJECT_NAME":"STARLINK-5900","OBJECT_ID":"2023-037AL","EPOCH":"2025-11-16T13:17:40.790976","MEAN_MOTION":14.97769022,"ECCENTRICITY":0.00017889,"INCLINATION":69.9979,"RA_OF_ASC_NODE":189.8273,"ARG_OF_PERICENTER":173.0437,"MEAN_ANOMALY":187.0747,"EPHEMERIS_TYPE":0,"CLASSIFICATION_TYPE":"U","NORAD_CAT_ID":55948,"ELEMENT_SET_NO":999,"REV_AT_EPOCH":14752,"BSTAR":-0.00651163,"MEAN_MOTION_DOT":-0.00075841,"MEAN_MOTION_DDOT":0},{"OBJECT_NAME":"STARLINK-5899","OBJECT_ID":"2023-037AM","EPOCH":"2025-11-16T00:39:49.484448","MEAN_MOTION":14.98324385,"ECCENTRICITY":0.00021902,"INCLINATION":69.9982,"RA_OF_ASC_NODE":191.2025,"ARG_OF_PERICENTER":262.2016,"MEAN_ANOMALY":97.8895,"EPHEMERIS_TYPE":0,"CLASSIFICATION_TYPE":"U","NORAD_CAT_ID":55949,"ELEMENT_SET_NO":999,"REV_AT_EPOCH":14744,"BSTAR":0.00011112952,"MEAN_MOTION_DOT":1.233e-5,"MEAN_MOTION_DDOT":0},{"OBJECT_NAME":"STARLINK-5911","OBJECT_ID":"2023-037AN","EPOCH":"2025-11-16T14:46:59.817504","MEAN_MOTION":14.98323941,"ECCENTRICITY":0.00026445,"INCLINATION":70.0002,"RA_OF_ASC_NODE":189.6426,"ARG_OF_PERICENTER":276.6265,"MEAN_ANOMALY":83.4593,"EPHEMERIS_TYPE":0,"CLASSIFICATION_TYPE":"U","NORAD_CAT_ID":55950,"ELEMENT_SET_NO":999,"REV_AT_EPOCH":14753,"BSTAR":0.00025087673,"MEAN_MOTION_DOT":2.901e-5,"MEAN_MOTION_DDOT":0},{"OBJECT_NAME":"STARLINK-5908","OBJECT_ID":"2023-037AP","EPOCH":"2025-11-16T02:58:19.909056","MEAN_MOTION":14.98320463,"ECCENTRICITY":0.00028696,"INCLINATION":69.9987,"RA_OF_ASC_NODE":210.6107,"ARG_OF_PERICENTER":269.5523,"MEAN_ANOMALY":90.5307,"EPHEMERIS_TYPE":0,"CLASSIFICATION_TYPE":"U","NORAD_CAT_ID":55951,"ELEMENT_SET_NO":999,"REV_AT_EPOCH":14697,"BSTAR":0.00027516726,"MEAN_MOTION_DOT":3.191e-5,"MEAN_MOTION_DDOT":0},{"OBJECT_NAME":"STARLINK-5893","OBJECT_ID":"2023-037AQ","EPOCH":"2025-11-14T21:14:18.889440","MEAN_MOTION":14.97867144,"ECCENTRICITY":0.00014774,"INCLINATION":69.9995,"RA_OF_ASC_NODE":194.0356,"ARG_OF_PERICENTER":342.6234,"MEAN_ANOMALY":17.4874,"EPHEMERIS_TYPE":0,"CLASSIFICATION_TYPE":"U","NORAD_CAT_ID":55952,"ELEMENT_SET_NO":999,"REV_AT_EPOCH":14727,"BSTAR":-0.0054503656,"MEAN_MOTION_DOT":-0.00063765,"MEAN_MOTION_DDOT":0},{"OBJECT_NAME":"STARLINK-5892","OBJECT_ID":"2023-037AS","EPOCH":"2025-11-16T09:22:32.818368","MEAN_MOTION":14.98329132,"ECCENTRICITY":0.00032818,"INCLINATION":69.9987,"RA_OF_ASC_NODE":190.0596,"ARG_OF_PERICENTER":266.5357,"MEAN_ANOMALY":93.5427,"EPHEMERIS_TYPE":0,"CLASSIFICATION_TYPE":"U","NORAD_CAT_ID":55954,"ELEMENT_SET_NO":999,"REV_AT_EPOCH":14750,"BSTAR":0.00028946962,"MEAN_MOTION_DOT":3.362e-5,"MEAN_MOTION_DDOT":0},{"OBJECT_NAME":"STARLINK-5878","OBJECT_ID":"2023-037AT","EPOCH":"2025-11-16T14:34:56.496576","MEAN_MOTION":14.98424035,"ECCENTRICITY":0.00032359,"INCLINATION":69.9999,"RA_OF_ASC_NODE":189.6127,"ARG_OF_PERICENTER":280.8209,"MEAN_ANOMALY":79.2586,"EPHEMERIS_TYPE":0,"CLASSIFICATION_TYPE":"U","NORAD_CAT_ID":55955,"ELEMENT_SET_NO":999,"REV_AT_EPOCH":14753,"BSTAR":0.0022866821,"MEAN_MOTION_DOT":0.00027365,"MEAN_MOTION_DDOT":0},{"OBJECT_NAME":"STARLINK-5883","OBJECT_ID":"2023-037AU","EPOCH":"2025-11-16T15:35:02.923296","MEAN_MOTION":14.98350714,"ECCENTRICITY":0.00027008,"INCLINATION":69.9993,"RA_OF_ASC_NODE":189.3571,"ARG_OF_PERICENTER":275.4615,"MEAN_ANOMALY":84.6236,"EPHEMERIS_TYPE":0,"CLASSIFICATION_TYPE":"U","NORAD_CAT_ID":55956,"ELEMENT_SET_NO":999,"REV_AT_EPOCH":14754,"BSTAR":-0.00021447312,"MEAN_MOTION_DOT":-2.652e-5,"MEAN_MOTION_DDOT":0},{"OBJECT_NAME":"STARLINK-5884","OBJECT_ID":"2023-037AV","EPOCH":"2025-11-16T01:51:55.838304","MEAN_MOTION":14.98322125,"ECCENTRICITY":0.00027779,"INCLINATION":69.9981,"RA_OF_ASC_NODE":190.975,"ARG_OF_PERICENTER":289.9592,"MEAN_ANOMALY":70.1268,"EPHEMERIS_TYPE":0,"CLASSIFICATION_TYPE":"U","NORAD_CAT_ID":55957,"ELEMENT_SET_NO":999,"REV_AT_EPOCH":14745,"BSTAR":0.00042364482,"MEAN_MOTION_DOT":4.964e-5,"MEAN_MOTION_DDOT":0},{"OBJECT_NAME":"STARLINK-5928","OBJECT_ID":"2023-037AW","EPOCH":"2025-11-16T14:28:58.325376","MEAN_MOTION":14.98345906,"ECCENTRICITY":0.00033011,"INCLINATION":69.9982,"RA_OF_ASC_NODE":189.5986,"ARG_OF_PERICENTER":267.4081,"MEAN_ANOMALY":92.6701,"EPHEMERIS_TYPE":0,"CLASSIFICATION_TYPE":"U","NORAD_CAT_ID":55958,"ELEMENT_SET_NO":999,"REV_AT_EPOCH":14753,"BSTAR":0.00011135756,"MEAN_MOTION_DOT":1.236e-5,"MEAN_MOTION_DDOT":0},{"OBJECT_NAME":"STARLINK-5929","OBJECT_ID":"2023-037AX","EPOCH":"2025-11-16T14:22:58.382976","MEAN_MOTION":14.98333355,"ECCENTRICITY":0.00033124,"INCLINATION":69.9981,"RA_OF_ASC_NODE":189.5839,"ARG_OF_PERICENTER":266.0254,"MEAN_ANOMALY":94.0527,"EPHEMERIS_TYPE":0,"CLASSIFICATION_TYPE":"U","NORAD_CAT_ID":55959,"ELEMENT_SET_NO":999,"REV_AT_EPOCH":14753,"BSTAR":0.00042793983,"MEAN_MOTION_DOT":5.017e-5,"MEAN_MOTION_DDOT":0},{"OBJECT_NAME":"STARLINK-5938","OBJECT_ID":"2023-037AY","EPOCH":"2025-11-16T01:52:04.470528","MEAN_MOTION":14.98380901,"ECCENTRICITY":0.00037796,"INCLINATION":70.0008,"RA_OF_ASC_NODE":190.9568,"ARG_OF_PERICENTER":242.1645,"MEAN_ANOMALY":117.9132,"EPHEMERIS_TYPE":0,"CLASSIFICATION_TYPE":"U","NORAD_CAT_ID":55960,"ELEMENT_SET_NO":999,"REV_AT_EPOCH":14745,"BSTAR":0.0010839315,"MEAN_MOTION_DOT":0.00012882,"MEAN_MOTION_DDOT":0},{"OBJECT_NAME":"STARLINK-5933","OBJECT_ID":"2023-037AZ","EPOCH":"2025-11-16T15:41:04.488288","MEAN_MOTION":14.98331637,"ECCENTRICITY":0.00031531,"INCLINATION":69.9986,"RA_OF_ASC_NODE":189.3715,"ARG_OF_PERICENTER":273.521,"MEAN_ANOMALY":86.5588,"EPHEMERIS_TYPE":0,"CLASSIFICATION_TYPE":"U","NORAD_CAT_ID":55961,"ELEMENT_SET_NO":999,"REV_AT_EPOCH":14754,"BSTAR":-0.00024685034,"MEAN_MOTION_DOT":-3.037e-5,"MEAN_MOTION_DDOT":0},{"OBJECT_NAME":"STARLINK-5906","OBJECT_ID":"2023-037BA","EPOCH":"2025-11-16T08:34:29.373024","MEAN_MOTION":14.9832712,"ECCENTRICITY":0.00030124,"INCLINATION":69.9981,"RA_OF_ASC_NODE":190.3393,"ARG_OF_PERICENTER":273.6344,"MEAN_ANOMALY":86.447,"EPHEMERIS_TYPE":0,"CLASSIFICATION_TYPE":"U","NORAD_CAT_ID":55962,"ELEMENT_SET_NO":999,"REV_AT_EPOCH":14749,"BSTAR":0.00022965677,"MEAN_MOTION_DOT":2.648e-5,"MEAN_MOTION_DDOT":0},{"OBJECT_NAME":"STARLINK-5924","OBJECT_ID":"2023-037BB","EPOCH":"2025-11-16T01:27:53.131968","MEAN_MOTION":14.98327052,"ECCENTRICITY":0.00029949,"INCLINATION":69.999,"RA_OF_ASC_NODE":190.9165,"ARG_OF_PERICENTER":271.721,"MEAN_ANOMALY":88.3606,"EPHEMERIS_TYPE":0,"CLASSIFICATION_TYPE":"U","NORAD_CAT_ID":55963,"ELEMENT_SET_NO":999,"REV_AT_EPOCH":14745,"BSTAR":0.00038705578,"MEAN_MOTION_DOT":4.528e-5,"MEAN_MOTION_DDOT":0},{"OBJECT_NAME":"STARLINK-5895","OBJECT_ID":"2023-037BC","EPOCH":"2025-11-16T14:31:08.068800","MEAN_MOTION":15.02694182,"ECCENTRICITY":0.00017398,"INCLINATION":70.0012,"RA_OF_ASC_NODE":188.7453,"ARG_OF_PERICENTER":250.278,"MEAN_ANOMALY":109.8194,"EPHEMERIS_TYPE":0,"CLASSIFICATION_TYPE":"U","NORAD_CAT_ID":55964,"ELEMENT_SET_NO":999,"REV_AT_EPOCH":14755,"BSTAR":0.00052408681,"MEAN_MOTION_DOT":6.919e-5,"MEAN_MOTION_DDOT":0}]
